{"type": "FeatureCollection", "features": [ {"type": "Feature", "properties": {"norad_id": 33153, "name": "INTELSAT 25 (IS-25)", "group": "intelsat", "lat": 0.49116792803606335, "lon": -110.81044292725358, "alt_km": 35763.90866666944, "timestamp": "2025-12-03T13:52:09.233204+00:00", "meta": {"OBJECT_NAME": "INTELSAT 25 (IS-25)", "OBJECT_ID": "2008-034A", "EPOCH": "2025-12-03T06:45:27.071712", "MEAN_MOTION": 1.0027143, "ECCENTRICITY": 0.00053409, "INCLINATION": 2.2014, "RA_OF_ASC_NODE": 82.754, "ARG_OF_PERICENTER": 177.1809, "MEAN_ANOMALY": 242.3102, "EPHEMERIS_TYPE": 0, "CLASSIFICATION_TYPE": "U", "NORAD_CAT_ID": 33153, "ELEMENT_SET_NO": 999, "REV_AT_EPOCH": 6373, "BSTAR": 0, "MEAN_MOTION_DOT": -2.06e-06, "MEAN_MOTION_DDOT": 0}, "tle": {"line1": "1 33153U 08034A   25337.28156333 -.00000206  00000+0  00000+0 0  9998", "line2": "2 33153   2.2014  82.7540 0005340 177.1809 242.3102  1.00271430 63738"}}, "geometry": {"type": "Point", "coordinates": [-110.81044292725358, 0.49116792803606335]}}, {"type": "Feature", "properties": {"norad_id": 33376, "name": "GALAXY 19 (G-19)", "group": "intelsat", "lat": -0.007262641829654426, "lon": -176.3535148231488, "alt_km": 35783.80873120278, "timestamp": "2025-12-03T13:52:09.233216+00:00", "meta": {"OBJECT_NAME": "GALAXY 19 (G-19)", "OBJECT_ID": "2008-045A", "EPOCH": "2025-12-03T04:00:38.642688", "MEAN_MOTION": 1.00270857, "ECCENTRICITY": 0.00034382, "INCLINATION": 0.0173, "RA_OF_ASC_NODE": 17.5292, "ARG_OF_PERICENTER": 246.195, "MEAN_ANOMALY": 131.7053, "EPHEMERIS_TYPE": 0, "CLASSIFICATION_TYPE": "U", "NORAD_CAT_ID": 33376, "ELEMENT_SET_NO": 999, "REV_AT_EPOCH": 6293, "BSTAR": 0, "MEAN_MOTION_DOT": -1.2e-06, "MEAN_MOTION_DDOT": 0}, "tle": {"line1": "1 33376U 08045A   25337.16711392 -.00000120  00000+0  00000+0 0  9991", "line2": "2 33376   0.0173  17.5292 0003438 246.1950 131.7053  1.00270857 62936"}}, "geometry": {"type": "Point", "coordinates": [-176.3535148231488, -0.007262641829654426]}}, {"type": "Feature", "properties": {"norad_id": 35493, "name": "FM-5", "group": "intelsat", "lat": -0.04337710037834575, "lon": -165.4519945038434, "alt_km": 35782.48853103831, "timestamp": "2025-12-03T13:52:09.233229+00:00", "meta": {"OBJECT_NAME": "FM-5", "OBJECT_ID": "2009-034A", "EPOCH": "2025-12-03T06:40:38.582976", "MEAN_MOTION": 1.00269779, "ECCENTRICITY": 0.0001171, "INCLINATION": 0.0231, "RA_OF_ASC_NODE": 284.1351, "ARG_OF_PERICENTER": 238.7271, "MEAN_ANOMALY": 283.5331, "EPHEMERIS_TYPE": 0, "CLASSIFICATION_TYPE": "U", "NORAD_CAT_ID": 35493, "ELEMENT_SET_NO": 999, "REV_AT_EPOCH": 4468, "BSTAR": 0, "MEAN_MOTION_DOT": -1.81e-06, "MEAN_MOTION_DDOT": 0}, "tle": {"line1": "1 35493U 09034A   25337.27822434 -.00000181  00000+0  00000+0 0  9991", "line2": "2 35493   0.0231 284.1351 0001171 238.7271 283.5331  1.00269779 44684"}}, "geometry": {"type": "Point", "coordinates": [-165.4519945038434, -0.04337710037834575]}}, {"type": "Feature", "properties": {"norad_id": 36097, "name": "INTELSAT 14 (IS-14)", "group": "intelsat", "lat": -0.039242218698639045, "lon": -124.32545690483111, "alt_km": 35775.599768133325, "timestamp": "2025-12-03T13:52:09.233240+00:00", "meta": {"OBJECT_NAME": "INTELSAT 14 (IS-14)", "OBJECT_ID": "2009-064A", "EPOCH": "2025-12-03T06:41:34.941696", "MEAN_MOTION": 1.00271415, "ECCENTRICITY": 0.00026432, "INCLINATION": 0.0163, "RA_OF_ASC_NODE": 303.4832, "ARG_OF_PERICENTER": 310.7082, "MEAN_ANOMALY": 233.5808, "EPHEMERIS_TYPE": 0, "CLASSIFICATION_TYPE": "U", "NORAD_CAT_ID": 36097, "ELEMENT_SET_NO": 999, "REV_AT_EPOCH": 5864, "BSTAR": 0, "MEAN_MOTION_DOT": -2.55e-06, "MEAN_MOTION_DDOT": 0}, "tle": {"line1": "1 36097U 09064A   25337.27887664 -.00000255  00000+0  00000+0 0  9993", "line2": "2 36097   0.0163 303.4832 0002643 310.7082 233.5808  1.00271415 58649"}}, "geometry": {"type": "Point", "coordinates": [-124.32545690483111, -0.039242218698639045]}}, {"type": "Feature", "properties": {"norad_id": 36106, "name": "INTELSAT 15 (IS-15)", "group": "intelsat", "lat": 0.02756887948610946, "lon": 5.866118181785817, "alt_km": 35790.46995247699, "timestamp": "2025-12-03T13:52:09.233253+00:00", "meta": {"OBJECT_NAME": "INTELSAT 15 (IS-15)", "OBJECT_ID": "2009-067A", "EPOCH": "2025-12-03T07:18:31.404096", "MEAN_MOTION": 1.00270382, "ECCENTRICITY": 0.00024334, "INCLINATION": 0.0154, "RA_OF_ASC_NODE": 327.2253, "ARG_OF_PERICENTER": 285.9637, "MEAN_ANOMALY": 14.0008, "EPHEMERIS_TYPE": 0, "CLASSIFICATION_TYPE": "U", "NORAD_CAT_ID": 36106, "ELEMENT_SET_NO": 999, "REV_AT_EPOCH": 3926, "BSTAR": 0, "MEAN_MOTION_DOT": -1.66e-06, "MEAN_MOTION_DDOT": 0}, "tle": {"line1": "1 36106U 09067A   25337.30453014 -.00000166  00000+0  00000+0 0  9990", "line2": "2 36106   0.0154 327.2253 0002433 285.9637  14.0008  1.00270382 39260"}}, "geometry": {"type": "Point", "coordinates": [5.866118181785817, 0.02756887948610946]}}, {"type": "Feature", "properties": {"norad_id": 36131, "name": "DIRECTV 12", "group": "intelsat", "lat": 0.003246699721738141, "lon": 177.9632927158697, "alt_km": 35786.14221260487, "timestamp": "2025-12-03T13:52:09.233265+00:00", "meta": {"OBJECT_NAME": "DIRECTV 12", "OBJECT_ID": "2009-075A", "EPOCH": "2025-12-03T06:48:38.769120", "MEAN_MOTION": 1.00270421, "ECCENTRICITY": 7.97e-06, "INCLINATION": 0.0493, "RA_OF_ASC_NODE": 130.6298, "ARG_OF_PERICENTER": 56.8081, "MEAN_ANOMALY": 244.3852, "EPHEMERIS_TYPE": 0, "CLASSIFICATION_TYPE": "U", "NORAD_CAT_ID": 36131, "ELEMENT_SET_NO": 999, "REV_AT_EPOCH": 4458, "BSTAR": 0, "MEAN_MOTION_DOT": -8.5e-07, "MEAN_MOTION_DDOT": 0}, "tle": {"line1": "1 36131U 09075A   25337.28378205 -.00000085  00000+0  00000+0 0  9992", "line2": "2 36131   0.0493 130.6298 0000079  56.8081 244.3852  1.00270421 44581"}}, "geometry": {"type": "Point", "coordinates": [177.9632927158697, 0.003246699721738141]}}, {"type": "Feature", "properties": {"norad_id": 36397, "name": "INTELSAT 16 (IS-16)", "group": "intelsat", "lat": -0.035593260381367106, "lon": -155.54252508272393, "alt_km": 35780.22933290308, "timestamp": "2025-12-03T13:52:09.233277+00:00", "meta": {"OBJECT_NAME": "INTELSAT 16 (IS-16)", "OBJECT_ID": "2010-006A", "EPOCH": "2025-12-03T06:32:43.291392", "MEAN_MOTION": 1.00270007, "ECCENTRICITY": 0.00023753, "INCLINATION": 0.0123, "RA_OF_ASC_NODE": 311.2707, "ARG_OF_PERICENTER": 303.8806, "MEAN_ANOMALY": 199.1956, "EPHEMERIS_TYPE": 0, "CLASSIFICATION_TYPE": "U", "NORAD_CAT_ID": 36397, "ELEMENT_SET_NO": 999, "REV_AT_EPOCH": 5769, "BSTAR": 0, "MEAN_MOTION_DOT": -2.26e-06, "MEAN_MOTION_DDOT": 0}, "tle": {"line1": "1 36397U 10006A   25337.27272328 -.00000226  00000+0  00000+0 0  9997", "line2": "2 36397   0.0123 311.2707 0002375 303.8806 199.1956  1.00270007 57696"}}, "geometry": {"type": "Point", "coordinates": [-155.54252508272393, -0.035593260381367106]}}, {"type": "Feature", "properties": {"norad_id": 37185, "name": "XM-5", "group": "intelsat", "lat": -0.07160626488043238, "lon": 165.4992522414439, "alt_km": 35779.957938665895, "timestamp": "2025-12-03T13:52:09.233288+00:00", "meta": {"OBJECT_NAME": "XM-5", "OBJECT_ID": "2010-053A", "EPOCH": "2025-12-02T10:37:38.767584", "MEAN_MOTION": 1.00270481, "ECCENTRICITY": 0.0001582, "INCLINATION": 0.0649, "RA_OF_ASC_NODE": 272.7549, "ARG_OF_PERICENTER": 239.5567, "MEAN_ANOMALY": 323.4678, "EPHEMERIS_TYPE": 0, "CLASSIFICATION_TYPE": "U", "NORAD_CAT_ID": 37185, "ELEMENT_SET_NO": 999, "REV_AT_EPOCH": 5551, "BSTAR": 0, "MEAN_MOTION_DOT": -2e-08, "MEAN_MOTION_DDOT": 0}, "tle": {"line1": "1 37185U 10053A   25336.44280981 -.00000002  00000+0  00000+0 0  9999", "line2": "2 37185   0.0649 272.7549 0001582 239.5567 323.4678  1.00270481 55516"}}, "geometry": {"type": "Point", "coordinates": [165.4992522414439, -0.07160626488043238]}}, {"type": "Feature", "properties": {"norad_id": 37238, "name": "INTELSAT 17 (IS-17)", "group": "intelsat", "lat": 0.02832675451964162, "lon": -13.281489122078487, "alt_km": 35784.038842176786, "timestamp": "2025-12-03T13:52:09.233300+00:00", "meta": {"OBJECT_NAME": "INTELSAT 17 (IS-17)", "OBJECT_ID": "2010-065B", "EPOCH": "2025-12-03T00:22:20.549568", "MEAN_MOTION": 1.00272391, "ECCENTRICITY": 0.0002694, "INCLINATION": 0.0168, "RA_OF_ASC_NODE": 281.0388, "ARG_OF_PERICENTER": 345.1332, "MEAN_ANOMALY": 237.5325, "EPHEMERIS_TYPE": 0, "CLASSIFICATION_TYPE": "U", "NORAD_CAT_ID": 37238, "ELEMENT_SET_NO": 999, "REV_AT_EPOCH": 5128, "BSTAR": 0, "MEAN_MOTION_DOT": 1.8e-07, "MEAN_MOTION_DDOT": 0}, "tle": {"line1": "1 37238U 10065B   25337.01551562  .00000018  00000+0  00000+0 0  9997", "line2": "2 37238   0.0168 281.0388 0002694 345.1332 237.5325  1.00272391 51280"}}, "geometry": {"type": "Point", "coordinates": [-13.281489122078487, 0.02832675451964162]}}, {"type": "Feature", "properties": {"norad_id": 37392, "name": "INTELSAT 28 (IS-28)", "group": "intelsat", "lat": 0.3370654679580312, "lon": -111.02633657842487, "alt_km": 35769.09767556176, "timestamp": "2025-12-03T13:52:09.233312+00:00", "meta": {"OBJECT_NAME": "INTELSAT 28 (IS-28)", "OBJECT_ID": "2011-016A", "EPOCH": "2025-12-03T06:45:19.584288", "MEAN_MOTION": 1.00271332, "ECCENTRICITY": 0.00040779, "INCLINATION": 1.2981, "RA_OF_ASC_NODE": 85.1696, "ARG_OF_PERICENTER": 172.2337, "MEAN_ANOMALY": 244.5975, "EPHEMERIS_TYPE": 0, "CLASSIFICATION_TYPE": "U", "NORAD_CAT_ID": 37392, "ELEMENT_SET_NO": 999, "REV_AT_EPOCH": 5132, "BSTAR": 0, "MEAN_MOTION_DOT": -2.06e-06, "MEAN_MOTION_DDOT": 0}, "tle": {"line1": "1 37392U 11016A   25337.28147667 -.00000206  00000+0  00000+0 0  9991", "line2": "2 37392   1.2981  85.1696 0004077 172.2337 244.5975  1.00271332 51321"}}, "geometry": {"type": "Point", "coordinates": [-111.02633657842487, 0.3370654679580312]}}]}